ONEWEB-0570             
1 55149U 23004K   24001.43142173  .00000129  00000+0  29363-3 0  9992
2 55149  87.9223 154.1347 0001805  74.0256 286.1075 13.18689230 51376
ONEWEB-0571             
1 55150U 23004L   24001.50097189  .00000063  00000+0  12803-3 0  9996
2 55150  87.9227 154.1250 0002252  83.5128 276.6261 13.18686607 51393
ONEWEB-0572             
1 55151U 23004M   24001.57476162  .00000016  00000+0  85806-5 0  9999
2 55151  87.9207 184.3376 0001663  83.0515 277.0806 13.17649919 49274
ONEWEB-0573             
1 55152U 23004N   24001.41876105  .00000053  00000+0  10283-3 0  9990
2 55152  87.9148 154.1755 0002449  79.3651 280.7757 13.18689234 51372
ONEWEB-0588             
1 55153U 23004P   24001.48833714 -.00000020  00000+0 -84325-4 0  9992
2 55153  87.9228 154.1149 0001743  73.5028 286.6295 13.18686081 51389
ONEWEB-0598             
1 55154U 23004Q   24001.60408784  .00000482  00000+0  13236-2 0  9993
2 55154  87.8958 199.4783 0002278  88.2110 271.9279 13.11418585 48250
ONEWEB-0599             
1 55155U 23004R   24001.53521806  .00000004  00000+0 -22933-4 0  9994
2 55155  87.9207 184.3190 0001683  97.8543 262.2780 13.17652724 49273
ONEWEB-0614             
1 55156U 23004S   24001.59924203  .00012628  00000+0  35580-1 0  9992
2 55156  87.8957 199.4804 0001542  88.0319 272.0985 13.11354415 48197
